H1 CPF  1  HTS 2022  3 12 12  5711 larets           NONE
H2  0304206 5557    27944 2022 03 12  0  0  0 2022 03 17  0  0  0   180 1 1  0 0 0
H5  0.0560 
H9 
10 0 59651  34920.00000  0    2844934.576    4652100.113   -4483313.230
10 0 59651  35100.00000  0    2615599.073    3688232.866   -5422141.440
10 0 59651  35280.00000  0    2264286.251    2598002.095   -6162576.440
10 0 59651  35460.00000  0    1801119.072    1424216.181   -6677842.475
10 0 59651  35640.00000  0    1241381.274     212254.015   -6949409.309
10 0 59651  35820.00000  0     604999.307    -991693.288   -6967598.027
10 0 59651  36000.00000  0     -84174.950   -2142367.734   -6731880.301
10 0 59651  36180.00000  0    -799250.629   -3197117.216   -6250875.377
10 0 59651  36360.00000  0   -1511331.412   -4117457.637   -5542052.198
10 0 59651  36540.00000  0   -2190662.577   -4870474.823   -4631134.001
10 0 59651  36720.00000  0   -2807857.197   -5430023.956   -3551216.360
10 0 59651  36900.00000  0   -3335154.936   -5777675.273   -2341607.369
10 0 59651  37080.00000  0   -3747657.428   -5903362.828   -1046423.219
10 0 59651  37260.00000  0   -4024483.072   -5805702.582     287020.684
10 0 59651  37440.00000  0   -4149777.158   -5491953.796    1609963.402
10 0 59651  37620.00000  0   -4113523.172   -4977620.589    2874019.803
10 0 59651  37800.00000  0   -3912111.243   -4285712.162    4032985.438
10 0 59651  37980.00000  0   -3548637.019   -3445706.022    5044545.158
10 0 59651  38160.00000  0   -3032917.887   -2492267.608    5871815.327
10 0 59651  38340.00000  0   -2381231.217   -1463797.973    6484662.173
10 0 59651  38520.00000  0   -1615789.405    -400876.312    6860765.642
10 0 59651  38700.00000  0    -763970.412     655344.661    6986394.124
10 0 59651  38880.00000  0     142658.737    1664719.526    6856877.124
10 0 59651  39060.00000  0    1069499.534    2589625.522    6476781.062
10 0 59651  39240.00000  0    1980229.720    3396363.286    5859773.438
10 0 59651  39420.00000  0    2838217.570    4056398.393    5028179.436
10 0 59651  39600.00000  0    3608000.803    4547405.780    4012229.289
10 0 59651  39780.00000  0    4256769.878    4854069.258    2849005.074
10 0 59651  39960.00000  0    4755799.275    4968605.666    1581110.277
10 0 59651  40140.00000  0    5081744.434    4890972.310     255094.044
10 0 59651  40320.00000  0    5217741.008    4628745.950   -1080301.267
10 0 59651  40500.00000  0    5154235.326    4196666.947   -2375996.266
10 0 59651  40680.00000  0    4889505.949    3615878.388   -3584439.032
10 0 59651  40860.00000  0    4429848.966    2912904.361   -4661396.945
10 0 59651  41040.00000  0    3789419.502    2118424.462   -5567594.426
10 0 59651  41220.00000  0    2989748.284    1265910.183   -6270128.391
10 0 59651  41400.00000  0    2058962.262     390197.670   -6743616.204
10 0 59651  41580.00000  0    1030753.707    -473937.426   -6971048.178
10 0 59651  41760.00000  0     -56856.482   -1293149.220   -6944341.214
10 0 59651  41940.00000  0   -1162923.112   -2036788.567   -6664584.142
10 0 59651  42120.00000  0   -2245099.364   -2678028.802   -6141983.705
10 0 59651  42300.00000  0   -3261235.967   -3194822.733   -5395511.325
10 0 59651  42480.00000  0   -4171009.257   -3570662.461   -4452259.707
10 0 59651  42660.00000  0   -4937528.365   -3795118.248   -3346509.676
10 0 59651  42840.00000  0   -5528852.708   -3864129.596   -2118525.174
10 0 59651  43020.00000  0   -5919353.344   -3780034.178    -813107.528
10 0 59651  43200.00000  0   -6090848.246   -3551327.626     522043.123
10 0 59651  43380.00000  0   -6033452.007   -3192163.399    1838096.619
10 0 59651  43560.00000  0   -5746087.066   -2721613.043    3086919.532
10 0 59651  43740.00000  0   -5236626.977   -2162725.188    4222869.196
10 0 59651  43920.00000  0   -4521670.438   -1541435.424    5204480.262
10 0 59651  44100.00000  0   -3625961.019    -885383.743    5995968.280
10 0 59651  44280.00000  0   -2581494.035    -222702.477    6568506.790
10 0 59651  44460.00000  0   -1426341.806     419177.277    6901241.308
10 0 59651  44640.00000  0    -203251.102    1014644.655    6982009.143
10 0 59651  44820.00000  0    1041931.008    1540917.939    6807762.737
10 0 59651  45000.00000  0    2261959.433    1978913.172    6384689.267
10 0 59651  45180.00000  0    3409971.233    2313941.250    5728021.252
10 0 59651  45360.00000  0    4441290.813    2536211.777    4861539.366
10 0 59651  45540.00000  0    5315195.769    2641127.466    3816766.363
10 0 59651  45720.00000  0    5996580.562    2629355.854    2631864.967
10 0 59651  45900.00000  0    6457433.665    2506665.567    1350255.009
10 0 59651  46080.00000  0    6678053.301    2283535.566      19005.701
10 0 59651  46260.00000  0    6647931.126    1974550.134   -1312943.665
10 0 59651  46440.00000  0    6366245.626    1597610.556   -2596645.721
10 0 59651  46620.00000  0    5841951.057    1173006.713   -3785003.768
10 0 59651  46800.00000  0    5093446.887     722396.921   -4834545.898
10 0 59651  46980.00000  0    4147852.849     267755.688   -5707026.339
10 0 59651  47160.00000  0    3039945.030    -169654.250   -6370792.893
10 0 59651  47340.00000  0    1810809.903    -570237.680   -6801885.426
10 0 59651  47520.00000  0     506280.419    -916912.210   -6984836.914
10 0 59651  47700.00000  0    -824783.045   -1195811.077   -6913172.613
10 0 59651  47880.00000  0   -2132309.515   -1396819.532   -6589603.037
10 0 59651  48060.00000  0   -3366876.353   -1513932.610   -6025915.366
10 0 59651  48240.00000  0   -4481553.029   -1545424.015   -5242567.527
10 0 59651  48420.00000  0   -5433683.639   -1493824.588   -4267994.345
10 0 59651  48600.00000  0   -6186543.354   -1365708.687   -3137625.448
10 0 59651  48780.00000  0   -6710801.402   -1171296.008   -1892636.442
10 0 59651  48960.00000  0   -6985720.111    -923883.221    -578464.862
10 0 59651  49140.00000  0   -7000026.957    -639129.591     756858.610
10 0 59651  49320.00000  0   -6752405.353    -334229.162    2064496.114
10 0 59651  49500.00000  0   -6251577.158     -27016.984    3296626.202
10 0 59651  49680.00000  0   -5515970.905     264946.655    4408225.657
10 0 59651  49860.00000  0   -4572993.974     525265.271    5358728.239
10 0 59651  50040.00000  0   -3457956.357     739523.227    6113491.522
10 0 59651  50220.00000  0   -2212704.461     895993.329    6645028.868
10 0 59651  50400.00000  0    -884021.906     986203.828    6933973.519
10 0 59651  50580.00000  0     478136.753    1005345.123    6969747.446
10 0 59651  50760.00000  0    1822511.102     952499.471    6750929.290
10 0 59651  50940.00000  0    3098446.230     830687.461    6285320.726
10 0 59651  51120.00000  0    4257796.450     646727.620    5589705.386
10 0 59651  51300.00000  0    5256760.472     410912.209    4689295.312
10 0 59651  51480.00000  0    6057582.131     136507.391    3616872.897
10 0 59651  51660.00000  0    6630051.143    -160900.657    2411635.274
10 0 59651  51840.00000  0    6952723.516    -464187.838    1117768.442
10 0 59651  52020.00000  0    7013797.419    -755568.551    -217194.826
10 0 59651  52200.00000  0    6811594.067   -1017517.697   -1544173.430
10 0 59651  52380.00000  0    6354604.494   -1233691.561   -2814409.799
10 0 59651  52560.00000  0    5661101.486   -1389795.375   -3981321.618
10 0 59651  52740.00000  0    4758344.069   -1474350.559   -5002246.953
10 0 59651  52920.00000  0    3681426.305   -1479321.963   -5840008.366
10 0 59651  53100.00000  0    2471835.562   -1400579.928   -6464238.118
10 0 59651  53280.00000  0    1175797.707   -1238175.310   -6852424.010
10 0 59651  53460.00000  0    -157516.191    -996420.095   -6990658.998
10 0 59651  53640.00000  0   -1477853.933    -683776.209   -6874084.959
10 0 59651  53820.00000  0   -2735755.641    -312555.250   -6507032.900
10 0 59651  54000.00000  0   -3884379.923     101561.127   -5902858.984
10 0 59651  54180.00000  0   -4881230.017     540163.728   -5083488.614
10 0 59651  54360.00000  0   -5689734.080     982900.860   -4078669.353
10 0 59651  54540.00000  0   -6280622.289    1408381.138   -2924942.650
10 0 59651  54720.00000  0   -6633039.721    1795158.331   -1664350.244
10 0 59651  54900.00000  0   -6735339.712    2122751.296    -342914.215
10 0 59651  55080.00000  0   -6585512.204    2372649.711     991059.450
10 0 59651  55260.00000  0   -6191214.468    2529252.244    2288780.203
10 0 59651  55440.00000  0   -5569402.818    2580690.858    3502794.784
10 0 59651  55620.00000  0   -4745584.054    2519493.757    4588751.932
10 0 59651  55800.00000  0   -3752728.747    2343053.643    5507030.326
10 0 59651  55980.00000  0   -2629911.448    2053884.516    6224167.623
10 0 59651  56160.00000  0   -1420740.083    1659657.433    6714050.149
10 0 59651  56340.00000  0    -171642.577    1173011.514    6958822.864
10 0 59651  56520.00000  0    1069911.856     611150.930    6949503.008
10 0 59651  56700.00000  0    2257200.314      -4757.379    6686297.197
10 0 59651  56880.00000  0    3345991.612    -650368.954    6178615.703
10 0 59651  57060.00000  0    4296199.091   -1299109.579    5444778.137
10 0 59651  57240.00000  0    5073384.931   -1923256.116    4511405.221
10 0 59651  57420.00000  0    5650059.520   -2495112.017    3412505.703
10 0 59651  57600.00000  0    6006723.211   -2988231.027    2188269.997
10 0 59651  57780.00000  0    6132589.410   -3378632.297     883602.179
10 0 59651  57960.00000  0    6025951.534   -3645945.378    -453555.159
10 0 59651  58140.00000  0    5694165.236   -3774421.170   -1774038.578
10 0 59651  58320.00000  0    5153240.051   -3753749.987   -3029339.478
10 0 59651  58500.00000  0    4427064.337   -3579643.531   -4173442.945
10 0 59651  58680.00000  0    3546310.630   -3254153.781   -5164547.532
10 0 59651  58860.00000  0    2547084.529   -2785714.033   -5966590.811
10 0 59651  59040.00000  0    1469397.329   -2188910.540   -6550523.606
10 0 59651  59220.00000  0     355536.014   -1484002.798   -6895309.098
99
